[{"OBJECT_NAME":"STARLINK-2420","OBJECT_ID":"2021-018AW","EPOCH":"2026-03-09T17:41:34.111968","MEAN_MOTION":15.06391641,"ECCENTRICITY":0.00013816,"INCLINATION":53.0557,"RA_OF_ASC_NODE":236.4043,"ARG_OF_PERICENTER":85.1184,"MEAN_ANOMALY":274.9962,"EPHEMERIS_TYPE":0,"CLASSIFICATION_TYPE":"U","NORAD_CAT_ID":47831,"ELEMENT_SET_NO":999,"REV_AT_EPOCH":27686,"BSTAR":6.8977019e-5,"MEAN_MOTION_DOT":7.46e-6,"MEAN_MOTION_DDOT":0},{"OBJECT_NAME":"CZ-6A DEB","OBJECT_ID":"2024-140FD","EPOCH":"2026-03-09T14:27:44.906112","MEAN_MOTION":14.99694865,"ECCENTRICITY":0.0039811,"INCLINATION":89.0027,"RA_OF_ASC_NODE":280.8171,"ARG_OF_PERICENTER":188.2594,"MEAN_ANOMALY":171.7991,"EPHEMERIS_TYPE":0,"CLASSIFICATION_TYPE":"U","NORAD_CAT_ID":60778,"ELEMENT_SET_NO":999,"REV_AT_EPOCH":8450,"BSTAR":0.0048584,"MEAN_MOTION_DOT":0.00061368,"MEAN_MOTION_DDOT":0}]
